{
    "links": {
        "self": "http://www.neowsapp.com/rest/v1/neo/3753659?api_key=iIulBulltgU6a56xZRHN4H3l9WmuAYTsLGpBGhQ2"
    },
    "id": "3753659",
    "neo_reference_id": "3753659",
    "name": "(2016 LN)",
    "designation": "2016 LN",
    "nasa_jpl_url": "http://ssd.jpl.nasa.gov/sbdb.cgi?sstr=3753659",
    "absolute_magnitude_h": 25.4,
    "estimated_diameter": {
        "kilometers": {
            "estimated_diameter_min": 0.022108281,
            "estimated_diameter_max": 0.0494356193
        },
        "meters": {
            "estimated_diameter_min": 22.1082810359,
            "estimated_diameter_max": 49.435619262
        },
        "miles": {
            "estimated_diameter_min": 0.0137374447,
            "estimated_diameter_max": 0.0307178602
        },
        "feet": {
            "estimated_diameter_min": 72.5337327539,
            "estimated_diameter_max": 162.1903570994
        }
    },
    "is_potentially_hazardous_asteroid": false,
    "close_approach_data": [
        {
            "close_approach_date": "2016-05-28",
            "close_approach_date_full": "2016-May-28 22:34",
            "epoch_date_close_approach": 1464474840000,
            "relative_velocity": {
                "kilometers_per_second": "11.927948041",
                "kilometers_per_hour": "42940.6129476626",
                "miles_per_hour": "26681.6269729518"
            },
            "miss_distance": {
                "astronomical": "0.0415269958",
                "lunar": "16.1540013662",
                "kilometers": "6212350.119178946",
                "miles": "3860175.3653476148"
            },
            "orbiting_body": "Earth"
        }
    ],
    "orbital_data": {
        "orbit_id": "5",
        "orbit_determination_date": "2017-04-06 08:25:39",
        "first_observation_date": "2016-06-02",
        "last_observation_date": "2016-06-10",
        "data_arc_in_days": 8,
        "observations_used": 35,
        "orbit_uncertainty": "8",
        "minimum_orbit_intersection": ".035591",
        "jupiter_tisserand_invariant": "3.711",
        "epoch_osculation": "2457542.5",
        "eccentricity": ".484183903540773",
        "semi_major_axis": "1.939722532560923",
        "inclination": "15.63107323985006",
        "ascending_node_longitude": "249.3272020646513",
        "orbital_period": "986.7516084900215",
        "perihelion_distance": "1.000540104959581",
        "perihelion_argument": "327.0426124394106",
        "aphelion_distance": "2.878904960162265",
        "perihelion_time": "2457511.544813755328",
        "mean_anomaly": "11.29348759323012",
        "mean_motion": ".3648334564672164",
        "equinox": "J2000",
        "orbit_class": {
            "orbit_class_type": "APO",
            "orbit_class_description": "Near-Earth asteroid orbits which cross the Earth’s orbit similar to that of 1862 Apollo",
            "orbit_class_range": "a (semi-major axis) > 1.0 AU; q (perihelion) < 1.017 AU"
        }
    },
    "is_sentry_object": false
}